STARLINK-37048          
1 68155U 26049P   26086.16670139 -.00088327  00000+0 -46432-3 0  9992
2 68155  97.2841 106.2821 0001090  97.6539 135.0568 15.80851078  3438
STARLINK-36313          
1 68156U 26049Q   26086.16670139  .00042580  00000+0  22215-3 0  9995
2 68156  97.2847 106.2813 0001247 127.8683 100.5838 15.80797023  3443
STARLINK-37064          
1 68157U 26049R   26086.16670139  .00040731  00000+0  21274-3 0  9996
2 68157  97.2844 106.2770 0000597  91.6337 128.2849 15.80780321  3435
STARLINK-37069          
1 68158U 26049S   26086.16670139 -.01901450  00000+0 -13328-1 0  9993
2 68158  97.2844 106.2850 0001693  90.0080 145.8564 15.77298224  3432
STARLINK-37053          
1 68159U 26049T   26086.16670139  .00024257  00000+0  12723-3 0  9992
2 68159  97.2843 106.2874 0000965 104.2713 141.2967 15.80781764  3437
STARLINK-36306          
1 68160U 26049U   26086.16670139 -.01974070  00000+0 -12254-1 0  9991
2 68160  97.2842 106.2884 0001885 111.3953 138.1662 15.80100612  3441
STARLINK-37057          
1 68161U 26049V   26086.16670139 -.00008429  00000+0 -43319-4 0  9996
2 68161  97.2843 106.2838 0001341 120.9370 116.0685 15.80808194  3437
STARLINK-37013          
1 68162U 26049W   26086.16670139 -.00024640  00000+0 -12824-3 0  9996
2 68162  97.2843 106.2962 0001487  79.3088 187.6080 15.80818889  3435
STARLINK-36958          
1 68163U 26049X   26086.16670139 -.00035772  00000+0 -18681-3 0  9992
2 68163  97.2841 106.2924 0001219 102.5644 155.8055 15.80811630  3438
STARLINK-37002          
1 68164U 26049Y   26086.16670139  .00084426  00000+0  43841-3 0  9997
2 68164  97.2845 106.2922 0001286  86.4600 167.6600 15.80758181  3435
STARLINK-36971          
1 68165U 26049Z   26086.16670139 -.00001311  00000+0 -61099-5 0  9999
2 68165  97.2841 106.2951 0001022  93.8821 168.7666 15.80808773  3436
STARLINK-36273          
1 68166U 26049AA  26086.16670139 -.01474183  00000+0 -10656-1 0  9991
2 68166  97.2831 106.2954 0001405  79.1292 183.9291 15.76317052  3447
