CCSDS_OMM_VERS = 2.0
CREATION_DATE  = 
ORIGINATOR     = 

OBJECT_NAME    = STARLINK-37048
OBJECT_ID      = 2026-049P
CENTER_NAME    = EARTH
REF_FRAME      = TEME
TIME_SYSTEM    = UTC
MEAN_ELEMENT_THEORY = SGP/SGP4

EPOCH          = 2026-03-27T04:00:03.000096
MEAN_MOTION    = 15.80851078
ECCENTRICITY   = .000109
INCLINATION    = 97.2841
RA_OF_ASC_NODE = 106.2821
ARG_OF_PERICENTER = 97.6539
MEAN_ANOMALY   = 135.0568

EPHEMERIS_TYPE = 0
CLASSIFICATION_TYPE = U
NORAD_CAT_ID   = 68155
ELEMENT_SET_NO = 999
REV_AT_EPOCH   = 343
BSTAR          = -.46432E-3
MEAN_MOTION_DOT = -.88327E-3
MEAN_MOTION_DDOT = 0

CCSDS_OMM_VERS = 2.0
CREATION_DATE  = 
ORIGINATOR     = 

OBJECT_NAME    = STARLINK-36313
OBJECT_ID      = 2026-049Q
CENTER_NAME    = EARTH
REF_FRAME      = TEME
TIME_SYSTEM    = UTC
MEAN_ELEMENT_THEORY = SGP/SGP4

EPOCH          = 2026-03-27T04:00:03.000096
MEAN_MOTION    = 15.80797023
ECCENTRICITY   = .0001247
INCLINATION    = 97.2847
RA_OF_ASC_NODE = 106.2813
ARG_OF_PERICENTER = 127.8683
MEAN_ANOMALY   = 100.5838

EPHEMERIS_TYPE = 0
CLASSIFICATION_TYPE = U
NORAD_CAT_ID   = 68156
ELEMENT_SET_NO = 999
REV_AT_EPOCH   = 344
BSTAR          = .22215E-3
MEAN_MOTION_DOT = .4258E-3
MEAN_MOTION_DDOT = 0

CCSDS_OMM_VERS = 2.0
CREATION_DATE  = 
ORIGINATOR     = 

OBJECT_NAME    = STARLINK-37064
OBJECT_ID      = 2026-049R
CENTER_NAME    = EARTH
REF_FRAME      = TEME
TIME_SYSTEM    = UTC
MEAN_ELEMENT_THEORY = SGP/SGP4

EPOCH          = 2026-03-27T04:00:03.000096
MEAN_MOTION    = 15.80780321
ECCENTRICITY   = .0000597
INCLINATION    = 97.2844
RA_OF_ASC_NODE = 106.2770
ARG_OF_PERICENTER = 91.6337
MEAN_ANOMALY   = 128.2849

EPHEMERIS_TYPE = 0
CLASSIFICATION_TYPE = U
NORAD_CAT_ID   = 68157
ELEMENT_SET_NO = 999
REV_AT_EPOCH   = 343
BSTAR          = .21274E-3
MEAN_MOTION_DOT = .40731E-3
MEAN_MOTION_DDOT = 0

CCSDS_OMM_VERS = 2.0
CREATION_DATE  = 
ORIGINATOR     = 

OBJECT_NAME    = STARLINK-37069
OBJECT_ID      = 2026-049S
CENTER_NAME    = EARTH
REF_FRAME      = TEME
TIME_SYSTEM    = UTC
MEAN_ELEMENT_THEORY = SGP/SGP4

EPOCH          = 2026-03-27T04:00:03.000096
MEAN_MOTION    = 15.77298224
ECCENTRICITY   = .0001693
INCLINATION    = 97.2844
RA_OF_ASC_NODE = 106.2850
ARG_OF_PERICENTER = 90.0080
MEAN_ANOMALY   = 145.8564

EPHEMERIS_TYPE = 0
CLASSIFICATION_TYPE = U
NORAD_CAT_ID   = 68158
ELEMENT_SET_NO = 999
REV_AT_EPOCH   = 343
BSTAR          = -.13328E-1
MEAN_MOTION_DOT = -.190145E-1
MEAN_MOTION_DDOT = 0

CCSDS_OMM_VERS = 2.0
CREATION_DATE  = 
ORIGINATOR     = 

OBJECT_NAME    = STARLINK-37053
OBJECT_ID      = 2026-049T
CENTER_NAME    = EARTH
REF_FRAME      = TEME
TIME_SYSTEM    = UTC
MEAN_ELEMENT_THEORY = SGP/SGP4

EPOCH          = 2026-03-27T04:00:03.000096
MEAN_MOTION    = 15.80781764
ECCENTRICITY   = .0000965
INCLINATION    = 97.2843
RA_OF_ASC_NODE = 106.2874
ARG_OF_PERICENTER = 104.2713
MEAN_ANOMALY   = 141.2967

EPHEMERIS_TYPE = 0
CLASSIFICATION_TYPE = U
NORAD_CAT_ID   = 68159
ELEMENT_SET_NO = 999
REV_AT_EPOCH   = 343
BSTAR          = .12723E-3
MEAN_MOTION_DOT = .24257E-3
MEAN_MOTION_DDOT = 0

CCSDS_OMM_VERS = 2.0
CREATION_DATE  = 
ORIGINATOR     = 

OBJECT_NAME    = STARLINK-36306
OBJECT_ID      = 2026-049U
CENTER_NAME    = EARTH
REF_FRAME      = TEME
TIME_SYSTEM    = UTC
MEAN_ELEMENT_THEORY = SGP/SGP4

EPOCH          = 2026-03-27T04:00:03.000096
MEAN_MOTION    = 15.80100612
ECCENTRICITY   = .0001885
INCLINATION    = 97.2842
RA_OF_ASC_NODE = 106.2884
ARG_OF_PERICENTER = 111.3953
MEAN_ANOMALY   = 138.1662

EPHEMERIS_TYPE = 0
CLASSIFICATION_TYPE = U
NORAD_CAT_ID   = 68160
ELEMENT_SET_NO = 999
REV_AT_EPOCH   = 344
BSTAR          = -.12254E-1
MEAN_MOTION_DOT = -.197407E-1
MEAN_MOTION_DDOT = 0

CCSDS_OMM_VERS = 2.0
CREATION_DATE  = 
ORIGINATOR     = 

OBJECT_NAME    = STARLINK-37057
OBJECT_ID      = 2026-049V
CENTER_NAME    = EARTH
REF_FRAME      = TEME
TIME_SYSTEM    = UTC
MEAN_ELEMENT_THEORY = SGP/SGP4

EPOCH          = 2026-03-27T04:00:03.000096
MEAN_MOTION    = 15.80808194
ECCENTRICITY   = .0001341
INCLINATION    = 97.2843
RA_OF_ASC_NODE = 106.2838
ARG_OF_PERICENTER = 120.9370
MEAN_ANOMALY   = 116.0685

EPHEMERIS_TYPE = 0
CLASSIFICATION_TYPE = U
NORAD_CAT_ID   = 68161
ELEMENT_SET_NO = 999
REV_AT_EPOCH   = 343
BSTAR          = -.43319E-4
MEAN_MOTION_DOT = -.8429E-4
MEAN_MOTION_DDOT = 0

CCSDS_OMM_VERS = 2.0
CREATION_DATE  = 
ORIGINATOR     = 

OBJECT_NAME    = STARLINK-37013
OBJECT_ID      = 2026-049W
CENTER_NAME    = EARTH
REF_FRAME      = TEME
TIME_SYSTEM    = UTC
MEAN_ELEMENT_THEORY = SGP/SGP4

EPOCH          = 2026-03-27T04:00:03.000096
MEAN_MOTION    = 15.80818889
ECCENTRICITY   = .0001487
INCLINATION    = 97.2843
RA_OF_ASC_NODE = 106.2962
ARG_OF_PERICENTER = 79.3088
MEAN_ANOMALY   = 187.6080

EPHEMERIS_TYPE = 0
CLASSIFICATION_TYPE = U
NORAD_CAT_ID   = 68162
ELEMENT_SET_NO = 999
REV_AT_EPOCH   = 343
BSTAR          = -.12824E-3
MEAN_MOTION_DOT = -.2464E-3
MEAN_MOTION_DDOT = 0

CCSDS_OMM_VERS = 2.0
CREATION_DATE  = 
ORIGINATOR     = 

OBJECT_NAME    = STARLINK-36958
OBJECT_ID      = 2026-049X
CENTER_NAME    = EARTH
REF_FRAME      = TEME
TIME_SYSTEM    = UTC
MEAN_ELEMENT_THEORY = SGP/SGP4

EPOCH          = 2026-03-27T04:00:03.000096
MEAN_MOTION    = 15.80811630
ECCENTRICITY   = .0001219
INCLINATION    = 97.2841
RA_OF_ASC_NODE = 106.2924
ARG_OF_PERICENTER = 102.5644
MEAN_ANOMALY   = 155.8055

EPHEMERIS_TYPE = 0
CLASSIFICATION_TYPE = U
NORAD_CAT_ID   = 68163
ELEMENT_SET_NO = 999
REV_AT_EPOCH   = 343
BSTAR          = -.18681E-3
MEAN_MOTION_DOT = -.35772E-3
MEAN_MOTION_DDOT = 0

CCSDS_OMM_VERS = 2.0
CREATION_DATE  = 
ORIGINATOR     = 

OBJECT_NAME    = STARLINK-37002
OBJECT_ID      = 2026-049Y
CENTER_NAME    = EARTH
REF_FRAME      = TEME
TIME_SYSTEM    = UTC
MEAN_ELEMENT_THEORY = SGP/SGP4

EPOCH          = 2026-03-27T04:00:03.000096
MEAN_MOTION    = 15.80758181
ECCENTRICITY   = .0001286
INCLINATION    = 97.2845
RA_OF_ASC_NODE = 106.2922
ARG_OF_PERICENTER = 86.4600
MEAN_ANOMALY   = 167.6600

EPHEMERIS_TYPE = 0
CLASSIFICATION_TYPE = U
NORAD_CAT_ID   = 68164
ELEMENT_SET_NO = 999
REV_AT_EPOCH   = 343
BSTAR          = .43841E-3
MEAN_MOTION_DOT = .84426E-3
MEAN_MOTION_DDOT = 0

CCSDS_OMM_VERS = 2.0
CREATION_DATE  = 
ORIGINATOR     = 

OBJECT_NAME    = STARLINK-36971
OBJECT_ID      = 2026-049Z
CENTER_NAME    = EARTH
REF_FRAME      = TEME
TIME_SYSTEM    = UTC
MEAN_ELEMENT_THEORY = SGP/SGP4

EPOCH          = 2026-03-27T04:00:03.000096
MEAN_MOTION    = 15.80808773
ECCENTRICITY   = .0001022
INCLINATION    = 97.2841
RA_OF_ASC_NODE = 106.2951
ARG_OF_PERICENTER = 93.8821
MEAN_ANOMALY   = 168.7666

EPHEMERIS_TYPE = 0
CLASSIFICATION_TYPE = U
NORAD_CAT_ID   = 68165
ELEMENT_SET_NO = 999
REV_AT_EPOCH   = 343
BSTAR          = -.61099E-5
MEAN_MOTION_DOT = -.1311E-4
MEAN_MOTION_DDOT = 0

CCSDS_OMM_VERS = 2.0
CREATION_DATE  = 
ORIGINATOR     = 

OBJECT_NAME    = STARLINK-36273
OBJECT_ID      = 2026-049AA
CENTER_NAME    = EARTH
REF_FRAME      = TEME
TIME_SYSTEM    = UTC
MEAN_ELEMENT_THEORY = SGP/SGP4

EPOCH          = 2026-03-27T04:00:03.000096
MEAN_MOTION    = 15.76317052
ECCENTRICITY   = .0001405
INCLINATION    = 97.2831
RA_OF_ASC_NODE = 106.2954
ARG_OF_PERICENTER = 79.1292
MEAN_ANOMALY   = 183.9291

EPHEMERIS_TYPE = 0
CLASSIFICATION_TYPE = U
NORAD_CAT_ID   = 68166
ELEMENT_SET_NO = 999
REV_AT_EPOCH   = 344
BSTAR          = -.10656E-1
MEAN_MOTION_DOT = -.1474183E-1
MEAN_MOTION_DDOT = 0

